{"type": "FeatureCollection", "features": [ {"type": "Feature", "properties": {"norad_id": 31152, "name": "FENGYUN 1C DEB", "group": "fengyun-1c-debris", "lat": -62.228709050684586, "lon": 133.76224856408191, "alt_km": 866.7895235959404, "timestamp": "2025-12-09T09:46:47.926545+00:00", "meta": {"OBJECT_NAME": "FENGYUN 1C DEB", "OBJECT_ID": "1999-025BHE", "EPOCH": "2025-12-08T22:52:36.554304", "MEAN_MOTION": 14.35843796, "ECCENTRICITY": 0.01303404, "INCLINATION": 98.4139, "RA_OF_ASC_NODE": 329.6428, "ARG_OF_PERICENTER": 44.5854, "MEAN_ANOMALY": 12.3842, "EPHEMERIS_TYPE": 0, "CLASSIFICATION_TYPE": "U", "NORAD_CAT_ID": 31152, "ELEMENT_SET_NO": 999, "REV_AT_EPOCH": 97994, "BSTAR": 0.00017206433, "MEAN_MOTION_DOT": 5.04e-06, "MEAN_MOTION_DDOT": 0}, "tle": {"line1": "1 31152U 99025BHE 25342.95320086  .00000504  00000+0  17206-3 0  9993", "line2": "2 31152  98.4139 329.6428 0130340  44.5854  12.3842 14.35843796979941"}}, "geometry": {"type": "Point", "coordinates": [133.76224856408191, -62.228709050684586]}}, {"type": "Feature", "properties": {"norad_id": 31155, "name": "FENGYUN 1C DEB", "group": "fengyun-1c-debris", "lat": 55.43557853972404, "lon": -114.3085779105228, "alt_km": 882.4656308459626, "timestamp": "2025-12-09T09:46:47.926556+00:00", "meta": {"OBJECT_NAME": "FENGYUN 1C DEB", "OBJECT_ID": "1999-025BHH", "EPOCH": "2025-12-08T11:02:06.294048", "MEAN_MOTION": 14.08301568, "ECCENTRICITY": 0.00889983, "INCLINATION": 99.042, "RA_OF_ASC_NODE": 51.3781, "ARG_OF_PERICENTER": 15.0708, "MEAN_ANOMALY": 345.3082, "EPHEMERIS_TYPE": 0, "CLASSIFICATION_TYPE": "U", "NORAD_CAT_ID": 31155, "ELEMENT_SET_NO": 999, "REV_AT_EPOCH": 95527, "BSTAR": 0.001797129, "MEAN_MOTION_DOT": 3.142e-05, "MEAN_MOTION_DDOT": 0}, "tle": {"line1": "1 31155U 99025BHH 25342.45979507  .00003142  00000+0  17971-2 0  9998", "line2": "2 31155  99.0420  51.3781 0088998  15.0708 345.3082 14.08301568955278"}}, "geometry": {"type": "Point", "coordinates": [-114.3085779105228, 55.43557853972404]}}, {"type": "Feature", "properties": {"norad_id": 31157, "name": "FENGYUN 1C DEB", "group": "fengyun-1c-debris", "lat": -69.41461232648581, "lon": 123.64929084597458, "alt_km": 817.2143719955448, "timestamp": "2025-12-09T09:46:47.926566+00:00", "meta": {"OBJECT_NAME": "FENGYUN 1C DEB", "OBJECT_ID": "1999-025BHK", "EPOCH": "2025-12-07T04:15:57.074688", "MEAN_MOTION": 14.22549105, "ECCENTRICITY": 0.0100449, "INCLINATION": 98.4774, "RA_OF_ASC_NODE": 324.9006, "ARG_OF_PERICENTER": 342.8267, "MEAN_ANOMALY": 16.9521, "EPHEMERIS_TYPE": 0, "CLASSIFICATION_TYPE": "U", "NORAD_CAT_ID": 31157, "ELEMENT_SET_NO": 999, "REV_AT_EPOCH": 96904, "BSTAR": 0.00056222965, "MEAN_MOTION_DOT": 1.279e-05, "MEAN_MOTION_DDOT": 0}, "tle": {"line1": "1 31157U 99025BHK 25341.17774392  .00001279  00000+0  56223-3 0  9996", "line2": "2 31157  98.4774 324.9006 0100449 342.8267  16.9521 14.22549105969047"}}, "geometry": {"type": "Point", "coordinates": [123.64929084597458, -69.41461232648581]}}, {"type": "Feature", "properties": {"norad_id": 31158, "name": "FENGYUN 1C DEB", "group": "fengyun-1c-debris", "lat": -64.12085377928949, "lon": 80.59625988654886, "alt_km": 800.1543309475992, "timestamp": "2025-12-09T09:46:47.926577+00:00", "meta": {"OBJECT_NAME": "FENGYUN 1C DEB", "OBJECT_ID": "1999-025BHL", "EPOCH": "2025-12-08T10:37:37.731648", "MEAN_MOTION": 14.33170274, "ECCENTRICITY": 0.00477382, "INCLINATION": 98.7814, "RA_OF_ASC_NODE": 61.0382, "ARG_OF_PERICENTER": 47.8986, "MEAN_ANOMALY": 312.6241, "EPHEMERIS_TYPE": 0, "CLASSIFICATION_TYPE": "U", "NORAD_CAT_ID": 31158, "ELEMENT_SET_NO": 999, "REV_AT_EPOCH": 64418, "BSTAR": 0.0025165293, "MEAN_MOTION_DOT": 6.96e-05, "MEAN_MOTION_DDOT": 0}, "tle": {"line1": "1 31158U 99025BHL 25342.44279782  .00006960  00000+0  25165-2 0  9993", "line2": "2 31158  98.7814  61.0382 0047738  47.8986 312.6241 14.33170274644182"}}, "geometry": {"type": "Point", "coordinates": [80.59625988654886, -64.12085377928949]}}, {"type": "Feature", "properties": {"norad_id": 31159, "name": "FENGYUN 1C DEB", "group": "fengyun-1c-debris", "lat": -78.3902752274223, "lon": 80.95894858947108, "alt_km": 503.66820943474613, "timestamp": "2025-12-09T09:46:47.926587+00:00", "meta": {"OBJECT_NAME": "FENGYUN 1C DEB", "OBJECT_ID": "1999-025BHM", "EPOCH": "2025-12-07T03:32:01.799520", "MEAN_MOTION": 15.37177071, "ECCENTRICITY": 0.01157472, "INCLINATION": 97.7995, "RA_OF_ASC_NODE": 300.4097, "ARG_OF_PERICENTER": 33.2484, "MEAN_ANOMALY": 327.5962, "EPHEMERIS_TYPE": 0, "CLASSIFICATION_TYPE": "U", "NORAD_CAT_ID": 31159, "ELEMENT_SET_NO": 999, "REV_AT_EPOCH": 99467, "BSTAR": 0.0020820653, "MEAN_MOTION_DOT": 0.00096035, "MEAN_MOTION_DDOT": 0}, "tle": {"line1": "1 31159U 99025BHM 25341.14724305  .00096035  00000+0  20821-2 0  9992", "line2": "2 31159  97.7995 300.4097 0115747  33.2484 327.5962 15.37177071994677"}}, "geometry": {"type": "Point", "coordinates": [80.95894858947108, -78.3902752274223]}}, {"type": "Feature", "properties": {"norad_id": 31160, "name": "FENGYUN 1C DEB", "group": "fengyun-1c-debris", "lat": 77.29754409076016, "lon": -5.520747288749072, "alt_km": 928.9593711965299, "timestamp": "2025-12-09T09:46:47.926598+00:00", "meta": {"OBJECT_NAME": "FENGYUN 1C DEB", "OBJECT_ID": "1999-025BHN", "EPOCH": "2025-12-08T09:22:15.594528", "MEAN_MOTION": 13.99591387, "ECCENTRICITY": 0.00565956, "INCLINATION": 99.0866, "RA_OF_ASC_NODE": 38.7038, "ARG_OF_PERICENTER": 268.242, "MEAN_ANOMALY": 91.2261, "EPHEMERIS_TYPE": 0, "CLASSIFICATION_TYPE": "U", "NORAD_CAT_ID": 31160, "ELEMENT_SET_NO": 999, "REV_AT_EPOCH": 69538, "BSTAR": 0.0002209191, "MEAN_MOTION_DOT": 2.82e-06, "MEAN_MOTION_DDOT": 0}, "tle": {"line1": "1 31160U 99025BHN 25342.39045827  .00000282  00000+0  22092-3 0  9999", "line2": "2 31160  99.0866  38.7038 0056595 268.2420  91.2261 13.99591387695381"}}, "geometry": {"type": "Point", "coordinates": [-5.520747288749072, 77.29754409076016]}}, {"type": "Feature", "properties": {"norad_id": 31161, "name": "FENGYUN 1C DEB", "group": "fengyun-1c-debris", "lat": 10.007808477403142, "lon": 3.529978707805654, "alt_km": 814.7063832929553, "timestamp": "2025-12-09T09:46:47.926609+00:00", "meta": {"OBJECT_NAME": "FENGYUN 1C DEB", "OBJECT_ID": "1999-025BHP", "EPOCH": "2025-12-08T18:23:48.937632", "MEAN_MOTION": 14.09244187, "ECCENTRICITY": 0.00684845, "INCLINATION": 98.749, "RA_OF_ASC_NODE": 4.4647, "ARG_OF_PERICENTER": 1.4364, "MEAN_ANOMALY": 358.6991, "EPHEMERIS_TYPE": 0, "CLASSIFICATION_TYPE": "U", "NORAD_CAT_ID": 31161, "ELEMENT_SET_NO": 999, "REV_AT_EPOCH": 96046, "BSTAR": 0.00059564655, "MEAN_MOTION_DOT": 1.016e-05, "MEAN_MOTION_DDOT": 0}, "tle": {"line1": "1 31161U 99025BHP 25342.76653863  .00001016  00000+0  59565-3 0  9997", "line2": "2 31161  98.7490   4.4647 0068484   1.4364 358.6991 14.09244187960460"}}, "geometry": {"type": "Point", "coordinates": [3.529978707805654, 10.007808477403142]}}, {"type": "Feature", "properties": {"norad_id": 31165, "name": "FENGYUN 1C DEB", "group": "fengyun-1c-debris", "lat": -62.819804397075266, "lon": 60.63519557255557, "alt_km": 633.9952335925591, "timestamp": "2025-12-09T09:46:47.926619+00:00", "meta": {"OBJECT_NAME": "FENGYUN 1C DEB", "OBJECT_ID": "1999-025BHT", "EPOCH": "2025-12-08T03:11:53.467008", "MEAN_MOTION": 14.70941214, "ECCENTRICITY": 0.00692189, "INCLINATION": 98.8854, "RA_OF_ASC_NODE": 41.509, "ARG_OF_PERICENTER": 249.2629, "MEAN_ANOMALY": 142.2739, "EPHEMERIS_TYPE": 0, "CLASSIFICATION_TYPE": "U", "NORAD_CAT_ID": 31165, "ELEMENT_SET_NO": 999, "REV_AT_EPOCH": 98687, "BSTAR": 0.0016610775, "MEAN_MOTION_DOT": 0.00010514, "MEAN_MOTION_DDOT": 0}, "tle": {"line1": "1 31165U 99025BHT 25342.13325772  .00010514  00000+0  16611-2 0  9994", "line2": "2 31165  98.8854  41.5090 0069218 249.2629 142.2739 14.70941214986878"}}, "geometry": {"type": "Point", "coordinates": [60.63519557255557, -62.819804397075266]}}, {"type": "Feature", "properties": {"norad_id": 31168, "name": "FENGYUN 1C DEB", "group": "fengyun-1c-debris", "lat": -63.77179293423907, "lon": -84.15358163382648, "alt_km": 752.6672546220334, "timestamp": "2025-12-09T09:46:47.926629+00:00", "meta": {"OBJECT_NAME": "FENGYUN 1C DEB", "OBJECT_ID": "1999-025BHW", "EPOCH": "2025-12-07T14:07:13.067616", "MEAN_MOTION": 14.67283945, "ECCENTRICITY": 0.01088741, "INCLINATION": 98.8911, "RA_OF_ASC_NODE": 112.4, "ARG_OF_PERICENTER": 79.4903, "MEAN_ANOMALY": 281.8544, "EPHEMERIS_TYPE": 0, "CLASSIFICATION_TYPE": "U", "NORAD_CAT_ID": 31168, "ELEMENT_SET_NO": 999, "REV_AT_EPOCH": 99045, "BSTAR": 0.0012286131, "MEAN_MOTION_DOT": 7.519e-05, "MEAN_MOTION_DDOT": 0}, "tle": {"line1": "1 31168U 99025BHW 25341.58834569  .00007519  00000+0  12286-2 0  9999", "line2": "2 31168  98.8911 112.4000 0108874  79.4903 281.8544 14.67283945990453"}}, "geometry": {"type": "Point", "coordinates": [-84.15358163382648, -63.77179293423907]}}, {"type": "Feature", "properties": {"norad_id": 31169, "name": "FENGYUN 1C DEB", "group": "fengyun-1c-debris", "lat": -52.122932341871156, "lon": 177.71915199641703, "alt_km": 847.8780391039863, "timestamp": "2025-12-09T09:46:47.926640+00:00", "meta": {"OBJECT_NAME": "FENGYUN 1C DEB", "OBJECT_ID": "1999-025BHX", "EPOCH": "2025-12-07T14:36:12.590784", "MEAN_MOTION": 14.26378053, "ECCENTRICITY": 0.00576294, "INCLINATION": 99.1571, "RA_OF_ASC_NODE": 7.8072, "ARG_OF_PERICENTER": 32.3449, "MEAN_ANOMALY": 328.1242, "EPHEMERIS_TYPE": 0, "CLASSIFICATION_TYPE": "U", "NORAD_CAT_ID": 31169, "ELEMENT_SET_NO": 999, "REV_AT_EPOCH": 57031, "BSTAR": 0.0034039126, "MEAN_MOTION_DOT": 8.288e-05, "MEAN_MOTION_DDOT": 0}, "tle": {"line1": "1 31169U 99025BHX 25341.60847906  .00008288  00000+0  34039-2 0  9996", "line2": "2 31169  99.1571   7.8072 0057629  32.3449 328.1242 14.26378053570319"}}, "geometry": {"type": "Point", "coordinates": [177.71915199641703, -52.122932341871156]}}]}